[{"OBJECT_NAME":"BRITE-PL2 (HEWELIUSZ)","OBJECT_ID":"2014-049B","EPOCH":"2026-03-09T20:58:34.162464","MEAN_MOTION":14.94186201,"ECCENTRICITY":0.00154454,"INCLINATION":97.8982,"RA_OF_ASC_NODE":180.2053,"ARG_OF_PERICENTER":80.5248,"MEAN_ANOMALY":279.7716,"EPHEMERIS_TYPE":0,"CLASSIFICATION_TYPE":"U","NORAD_CAT_ID":40119,"ELEMENT_SET_NO":999,"REV_AT_EPOCH":62661,"BSTAR":0.00026097212,"MEAN_MOTION_DOT":2.742e-5,"MEAN_MOTION_DDOT":0},{"OBJECT_NAME":"STARLINK-5841","OBJECT_ID":"2023-064AX","EPOCH":"2026-03-09T09:55:02.143200","MEAN_MOTION":14.98303276,"ECCENTRICITY":0.00032249,"INCLINATION":69.9991,"RA_OF_ASC_NODE":85.1707,"ARG_OF_PERICENTER":277.624,"MEAN_ANOMALY":82.4553,"EPHEMERIS_TYPE":0,"CLASSIFICATION_TYPE":"U","NORAD_CAT_ID":56493,"ELEMENT_SET_NO":999,"REV_AT_EPOCH":15668,"BSTAR":-0.0002372291,"MEAN_MOTION_DOT":-2.921e-5,"MEAN_MOTION_DDOT":0}]
