BRITE-PL2 (HEWELIUSZ)   
1 40119U 14049B   26068.87400651  .00002742  00000+0  26097-3 0  9997
2 40119  97.8982 180.2053 0015445  80.5248 279.7716 14.94186201626611
STARLINK-5841           
1 56493U 23064AX  26068.41321925 -.00002921  00000+0 -23723-3 0  9996
2 56493  69.9991  85.1707 0003224 277.6240  82.4553 14.98303276156685
